{"type": "FeatureCollection", "features": [ {"type": "Feature", "properties": {"norad_id": 45344, "name": "BEIDOU-3 G2 (C60)", "group": "gnss", "lat": 2.471104029575018, "lon": 143.55798062481125, "alt_km": 35803.75639947733, "timestamp": "2025-12-14T22:38:41.002212+00:00", "meta": {"OBJECT_NAME": "BEIDOU-3 G2 (C60)", "OBJECT_ID": "2020-017A", "EPOCH": "2025-12-14T03:31:39.302688", "MEAN_MOTION": 1.00273061, "ECCENTRICITY": 0.00044413, "INCLINATION": 2.5003, "RA_OF_ASC_NODE": 43.8841, "ARG_OF_PERICENTER": 268.565, "MEAN_ANOMALY": 263.571, "EPHEMERIS_TYPE": 0, "CLASSIFICATION_TYPE": "U", "NORAD_CAT_ID": 45344, "ELEMENT_SET_NO": 999, "REV_AT_EPOCH": 2140, "BSTAR": 0, "MEAN_MOTION_DOT": -1.25e-06, "MEAN_MOTION_DDOT": 0}, "tle": {"line1": "1 45344U 20017A   25348.14698267 -.00000125  00000+0  00000+0 0  9992", "line2": "2 45344   2.5003  43.8841 0004441 268.5650 263.5710  1.00273061 21406"}}, "geometry": {"type": "Point", "coordinates": [143.55798062481125, 2.471104029575018]}}, {"type": "Feature", "properties": {"norad_id": 45358, "name": "COSMOS 2545 (760)", "group": "gnss", "lat": 60.2264248538161, "lon": 82.23680964681692, "alt_km": 19147.40847641248, "timestamp": "2025-12-14T22:38:41.002225+00:00", "meta": {"OBJECT_NAME": "COSMOS 2545 (760)", "OBJECT_ID": "2020-018A", "EPOCH": "2025-12-10T13:58:04.872576", "MEAN_MOTION": 2.13102273, "ECCENTRICITY": 0.00118432, "INCLINATION": 64.471, "RA_OF_ASC_NODE": 319.0455, "ARG_OF_PERICENTER": 248.8319, "MEAN_ANOMALY": 111.0396, "EPHEMERIS_TYPE": 0, "CLASSIFICATION_TYPE": "U", "NORAD_CAT_ID": 45358, "ELEMENT_SET_NO": 999, "REV_AT_EPOCH": 4464, "BSTAR": 0, "MEAN_MOTION_DOT": -5.2e-07, "MEAN_MOTION_DDOT": 0}, "tle": {"line1": "1 45358U 20018A   25344.58200084 -.00000052  00000+0  00000+0 0  9997", "line2": "2 45358  64.4710 319.0455 0011843 248.8319 111.0396  2.13102273 44648"}}, "geometry": {"type": "Point", "coordinates": [82.23680964681692, 60.2264248538161]}}, {"type": "Feature", "properties": {"norad_id": 45807, "name": "BEIDOU-3 G3 (C61)", "group": "gnss", "lat": 1.896692283727575, "lon": 174.11759008790835, "alt_km": 35809.58702120252, "timestamp": "2025-12-14T22:38:41.002239+00:00", "meta": {"OBJECT_NAME": "BEIDOU-3 G3 (C61)", "OBJECT_ID": "2020-040A", "EPOCH": "2025-12-08T17:33:17.532288", "MEAN_MOTION": 1.00275813, "ECCENTRICITY": 0.00060306, "INCLINATION": 1.9816, "RA_OF_ASC_NODE": 66.5886, "ARG_OF_PERICENTER": 306.262, "MEAN_ANOMALY": 78.7159, "EPHEMERIS_TYPE": 0, "CLASSIFICATION_TYPE": "U", "NORAD_CAT_ID": 45807, "ELEMENT_SET_NO": 999, "REV_AT_EPOCH": 2016, "BSTAR": 0, "MEAN_MOTION_DOT": -3.52e-06, "MEAN_MOTION_DDOT": 0}, "tle": {"line1": "1 45807U 20040A   25342.73145292 -.00000352  00000+0  00000+0 0  9998", "line2": "2 45807   1.9816  66.5886 0006030 306.2620  78.7159  1.00275813 20161"}}, "geometry": {"type": "Point", "coordinates": [174.11759008790835, 1.896692283727575]}}, {"type": "Feature", "properties": {"norad_id": 45854, "name": "GPS BIII-3  (PRN 23)", "group": "gnss", "lat": 36.13496746134466, "lon": -172.71893762041088, "alt_km": 20118.313886830194, "timestamp": "2025-12-14T22:38:41.002251+00:00", "meta": {"OBJECT_NAME": "GPS BIII-3  (PRN 23)", "OBJECT_ID": "2020-041A", "EPOCH": "2025-12-11T05:23:02.925024", "MEAN_MOTION": 2.00561914, "ECCENTRICITY": 0.006046, "INCLINATION": 56.5461, "RA_OF_ASC_NODE": 36.2442, "ARG_OF_PERICENTER": 203.3747, "MEAN_ANOMALY": 126.9066, "EPHEMERIS_TYPE": 0, "CLASSIFICATION_TYPE": "U", "NORAD_CAT_ID": 45854, "ELEMENT_SET_NO": 999, "REV_AT_EPOCH": 4026, "BSTAR": 0, "MEAN_MOTION_DOT": -9.4e-07, "MEAN_MOTION_DDOT": 0}, "tle": {"line1": "1 45854U 20041A   25345.22433941 -.00000094  00000+0  00000+0 0  9992", "line2": "2 45854  56.5461  36.2442 0060460 203.3747 126.9066  2.00561914 40268"}}, "geometry": {"type": "Point", "coordinates": [-172.71893762041088, 36.13496746134466]}}, {"type": "Feature", "properties": {"norad_id": 46114, "name": "GALAXY 30 (WAAS/PRN 135)", "group": "gnss", "lat": -0.026890939205312166, "lon": -61.45467684078098, "alt_km": 35778.044029286, "timestamp": "2025-12-14T22:38:41.002263+00:00", "meta": {"OBJECT_NAME": "GALAXY 30 (WAAS/PRN 135)", "OBJECT_ID": "2020-056C", "EPOCH": "2025-12-13T23:07:42.447072", "MEAN_MOTION": 1.00273374, "ECCENTRICITY": 0.00021647, "INCLINATION": 0.0184, "RA_OF_ASC_NODE": 346.092, "ARG_OF_PERICENTER": 277.7385, "MEAN_ANOMALY": 40.9949, "EPHEMERIS_TYPE": 0, "CLASSIFICATION_TYPE": "U", "NORAD_CAT_ID": 46114, "ELEMENT_SET_NO": 999, "REV_AT_EPOCH": 1943, "BSTAR": 0, "MEAN_MOTION_DOT": 5.3e-07, "MEAN_MOTION_DDOT": 0}, "tle": {"line1": "1 46114U 20056C   25347.96368573  .00000053  00000+0  00000+0 0  9993", "line2": "2 46114   0.0184 346.0920 0002164 277.7385  40.9949  1.00273374 19436"}}, "geometry": {"type": "Point", "coordinates": [-61.45467684078098, -0.026890939205312166]}}, {"type": "Feature", "properties": {"norad_id": 46805, "name": "COSMOS 2547 (705K)", "group": "gnss", "lat": -34.016729251495896, "lon": 179.91789054800697, "alt_km": 19135.331522032604, "timestamp": "2025-12-14T22:38:41.002274+00:00", "meta": {"OBJECT_NAME": "COSMOS 2547 (705K)", "OBJECT_ID": "2020-075A", "EPOCH": "2025-12-13T02:47:35.788416", "MEAN_MOTION": 2.13100044, "ECCENTRICITY": 0.00062786, "INCLINATION": 64.5959, "RA_OF_ASC_NODE": 198.6839, "ARG_OF_PERICENTER": 228.7725, "MEAN_ANOMALY": 131.2461, "EPHEMERIS_TYPE": 0, "CLASSIFICATION_TYPE": "U", "NORAD_CAT_ID": 46805, "ELEMENT_SET_NO": 999, "REV_AT_EPOCH": 3994, "BSTAR": 0, "MEAN_MOTION_DOT": 7.7e-07, "MEAN_MOTION_DDOT": 0}, "tle": {"line1": "1 46805U 20075A   25347.11638644  .00000077  00000+0  00000+0 0  9993", "line2": "2 46805  64.5959 198.6839 0006278 228.7725 131.2461  2.13100044 39941"}}, "geometry": {"type": "Point", "coordinates": [179.91789054800697, -34.016729251495896]}}, {"type": "Feature", "properties": {"norad_id": 46826, "name": "GPS BIII-4  (PRN 14)", "group": "gnss", "lat": 51.08500024539759, "lon": -25.822138653725094, "alt_km": 20197.30791286178, "timestamp": "2025-12-14T22:38:41.002285+00:00", "meta": {"OBJECT_NAME": "GPS BIII-4  (PRN 14)", "OBJECT_ID": "2020-078A", "EPOCH": "2025-12-14T01:09:53.243424", "MEAN_MOTION": 2.00566845, "ECCENTRICITY": 0.00646944, "INCLINATION": 54.0148, "RA_OF_ASC_NODE": 218.2878, "ARG_OF_PERICENTER": 203.3789, "MEAN_ANOMALY": 337.0956, "EPHEMERIS_TYPE": 0, "CLASSIFICATION_TYPE": "U", "NORAD_CAT_ID": 46826, "ELEMENT_SET_NO": 999, "REV_AT_EPOCH": 3779, "BSTAR": 0, "MEAN_MOTION_DOT": 4.1e-07, "MEAN_MOTION_DDOT": 0}, "tle": {"line1": "1 46826U 20078A   25348.04853291  .00000041  00000+0  00000+0 0  9990", "line2": "2 46826  54.0148 218.2878 0064694 203.3789 337.0956  2.00566845 37792"}}, "geometry": {"type": "Point", "coordinates": [-25.822138653725094, 51.08500024539759]}}, {"type": "Feature", "properties": {"norad_id": 48859, "name": "GPS BIII-5  (PRN 11)", "group": "gnss", "lat": -49.525185459066606, "lon": -74.55699660295889, "alt_km": 20154.252014243408, "timestamp": "2025-12-14T22:38:41.002295+00:00", "meta": {"OBJECT_NAME": "GPS BIII-5  (PRN 11)", "OBJECT_ID": "2021-054A", "EPOCH": "2025-12-08T04:14:32.423424", "MEAN_MOTION": 2.00553627, "ECCENTRICITY": 0.0024678, "INCLINATION": 55.2581, "RA_OF_ASC_NODE": 340.1367, "ARG_OF_PERICENTER": 233.3994, "MEAN_ANOMALY": 212.8593, "EPHEMERIS_TYPE": 0, "CLASSIFICATION_TYPE": "U", "NORAD_CAT_ID": 48859, "ELEMENT_SET_NO": 999, "REV_AT_EPOCH": 3292, "BSTAR": 0, "MEAN_MOTION_DOT": -8.6e-07, "MEAN_MOTION_DDOT": 0}, "tle": {"line1": "1 48859U 21054A   25342.17676416 -.00000086  00000+0  00000+0 0  9993", "line2": "2 48859  55.2581 340.1367 0024678 233.3994 212.8593  2.00553627 32922"}}, "geometry": {"type": "Point", "coordinates": [-74.55699660295889, -49.525185459066606]}}, {"type": "Feature", "properties": {"norad_id": 49336, "name": "QZS-1R (QZSS/PRN 196)", "group": "gnss", "lat": 33.842343157956996, "lon": -160.11843069825906, "alt_km": 38710.67925959289, "timestamp": "2025-12-14T22:38:41.002307+00:00", "meta": {"OBJECT_NAME": "QZS-1R (QZSS/PRN 196)", "OBJECT_ID": "2021-096A", "EPOCH": "2025-12-13T14:08:09.316608", "MEAN_MOTION": 1.00257492, "ECCENTRICITY": 0.07555271, "INCLINATION": 37.0792, "RA_OF_ASC_NODE": 82.3463, "ARG_OF_PERICENTER": 271.3489, "MEAN_ANOMALY": 75.5912, "EPHEMERIS_TYPE": 0, "CLASSIFICATION_TYPE": "U", "NORAD_CAT_ID": 49336, "ELEMENT_SET_NO": 999, "REV_AT_EPOCH": 1514, "BSTAR": 0, "MEAN_MOTION_DOT": -2.77e-06, "MEAN_MOTION_DDOT": 0}, "tle": {"line1": "1 49336U 21096A   25347.58899672 -.00000277  00000+0  00000+0 0  9993", "line2": "2 49336  37.0792  82.3463 0755527 271.3489  75.5912  1.00257492 15146"}}, "geometry": {"type": "Point", "coordinates": [-160.11843069825906, 33.842343157956996]}}, {"type": "Feature", "properties": {"norad_id": 49809, "name": "GSAT0223 (GALILEO 27)", "group": "gnss", "lat": 56.929731037834664, "lon": 68.44629137781959, "alt_km": 23228.84065490975, "timestamp": "2025-12-14T22:38:41.002324+00:00", "meta": {"OBJECT_NAME": "GSAT0223 (GALILEO 27)", "OBJECT_ID": "2021-116A", "EPOCH": "2025-12-10T02:39:25.687008", "MEAN_MOTION": 1.70475768, "ECCENTRICITY": 0.000463, "INCLINATION": 57.2198, "RA_OF_ASC_NODE": 346.7831, "ARG_OF_PERICENTER": 251.6037, "MEAN_ANOMALY": 107.9349, "EPHEMERIS_TYPE": 0, "CLASSIFICATION_TYPE": "U", "NORAD_CAT_ID": 49809, "ELEMENT_SET_NO": 999, "REV_AT_EPOCH": 2495, "BSTAR": 0, "MEAN_MOTION_DOT": -8.7e-07, "MEAN_MOTION_DDOT": 0}, "tle": {"line1": "1 49809U 21116A   25344.11071397 -.00000087  00000+0  00000+0 0  9992", "line2": "2 49809  57.2198 346.7831 0004630 251.6037 107.9349  1.70475768 24951"}}, "geometry": {"type": "Point", "coordinates": [68.44629137781959, 56.929731037834664]}}]}